BEIDOU-2 IGSO-1 (C06)   
1 36828U 10036A   26141.01113590 -.00000079  00000+0  00000+0 0  9996
2 36828  54.2967 163.2045 0058932 224.9850 321.8842  1.00280030 57824
BEIDOU-2 G4 (C04)       
1 37210U 10057A   26141.59142806 -.00000120  00000+0  00000+0 0  9997
2 37210   3.5828  69.0944 0005719 208.0387 334.9985  1.00271587 57029
BEIDOU-2 IGSO-2 (C07)   
1 37256U 10068A   26140.79488699 -.00000222  00000+0  00000+0 0  9996
2 37256  47.6009 272.1707 0054486 211.9297 147.0769  1.00291600 56515
BEIDOU-2 IGSO-3 (C08)   
1 37384U 11013A   26134.75077336 -.00000206  00000+0  00000+0 0  9992
2 37384  62.3634  40.4703 0033942 185.9417  24.6219  1.00276202 55324
BEIDOU-2 IGSO-4 (C09)   
1 37763U 11038A   26141.53838713  .00000015  00000+0  00000+0 0  9995
2 37763  54.5931 165.9096 0158441 231.3634 127.8009  1.00289938 54383
BEIDOU-2 IGSO-5 (C10)   
1 37948U 11073A   26140.84886103 -.00000191  00000+0  00000+0 0  9994
2 37948  47.7298 271.8817 0112132 220.6478 143.6793  1.00254801 52868
BEIDOU-2 G5 (C05)       
1 38091U 12008A   26141.53154044  .00000050  00000+0  00000+0 0  9995
2 38091   3.5091  69.8449 0010884 270.2240 149.1451  1.00273420 52101
BEIDOU-2 M3 (C11)       
1 38250U 12018A   26141.34078759 -.00000061  00000+0  00000+0 0  9993
2 38250  55.7819 305.7795 0019759 275.7935  83.9605  1.86229586 95440
BEIDOU-2 M4 (C12)       
1 38251U 12018B   26140.19912060 -.00000057  00000+0  00000+0 0  9993
2 38251  55.6827 305.0343 0011032 279.8130  80.0393  1.86229401 95425
BEIDOU-2 M6 (C14)       
1 38775U 12050B   26140.98287755 -.00000043  00000+0  00000+0 0  9998
2 38775  56.5216  63.7937 0014256 352.7329   7.2430  1.86230801 92805
BEIDOU-2 G6 (C02)       
1 38953U 12059A   26141.39400050 -.00000182  00000+0  00000+0 0  9990
2 38953   4.3555  73.7968 0010203 320.6501  70.4751  1.00269888 49644
BEIDOU-3S IGSO-1S (C31) 
1 40549U 15019A   26141.39590718 -.00000181  00000+0  00000+0 0  9993
2 40549  49.2470 295.7810 0038053 189.9536 349.3717  1.00255175 40804
BEIDOU-3S M2S (C58)     
1 40748U 15037A   26141.47585193 -.00000062  00000+0  00000+0 0  9992
2 40748  54.8949 302.9651 0007585 264.3915  95.5002  1.86231763 73621
BEIDOU-3S M1S (C57)     
1 40749U 15037B   26140.07585329 -.00000057  00000+0  00000+0 0  9993
2 40749  54.8932 303.0013 0004000  57.4653 302.5491  1.86254754 73603
BEIDOU-3S IGSO-2S (C56) 
1 40938U 15053A   26140.80025236 -.00000157  00000+0  00000+0 0  9999
2 40938  49.2661 259.1074 0064744 191.1209 172.6290  1.00265102 39084
BEIDOU-2 IGSO-6 (C13)   
1 41434U 16021A   26140.68849446 -.00000169  00000+0  00000+0 0  9993
2 41434  60.1892  38.3127 0057369 232.4301 309.7522  1.00263960 37200
BEIDOU-2 G7 (C03)       
1 41586U 16037A   26141.61306396 -.00000360  00000+0  00000+0 0  9997
2 41586   1.6562  69.0683 0007295 359.7926 141.5362  1.00264774  6629
BEIDOU-3 M1 (C19)       
1 43001U 17069A   26141.28521788 -.00000044  00000+0  00000+0 0  9993
2 43001  56.6703  63.9705 0011500 322.1206  37.7955  1.86230911 58101
BEIDOU-3 M2 (C20)       
1 43002U 17069B   26141.22389644 -.00000043  00000+0  00000+0 0  9990
2 43002  56.6691  64.0088 0009779 345.1879  14.7802  1.86230582 58098
BEIDOU-3 M7 (C27)       
1 43107U 18003A   26140.96554785 -.00000061  00000+0  00000+0 0  9995
2 43107  54.3532 303.2639 0005178  86.9288 273.1082  1.86227886 56841
BEIDOU-3 M8 (C28)       
1 43108U 18003B   26140.91074286 -.00000061  00000+0  00000+0 0  9994
2 43108  54.3464 303.2478 0002137 274.6789  85.2743  1.86230789 56854
BEIDOU-3 M4 (C22)       
1 43207U 18018A   26141.35350022 -.00000044  00000+0  00000+0 0  9995
2 43207  56.6293  64.0330 0007926  10.0744 349.9382  1.86230846 56248
BEIDOU-3 M3 (C21)       
1 43208U 18018B   26140.88300459 -.00000042  00000+0  00000+0 0  9990
2 43208  56.6283  64.0526 0009521 335.5186  24.4324  1.86230693 56233
BEIDOU-3 M9 (C29)       
1 43245U 18029A   26140.56372123 -.00000058  00000+0  00000+0 0  9992
2 43245  54.2193 300.9137 0000951 119.7583 240.2270  1.86227997 55385
BEIDOU-3 M10 (C30)      
1 43246U 18029B   26140.49822334 -.00000058  00000+0  00000+0 0  9999
2 43246  54.2177 300.9433 0004440  38.3472 321.6600  1.86229004 55367
BEIDOU-2 IGSO-7 (C16)   
1 43539U 18057A   26141.47106076 -.00000043  00000+0  00000+0 0  9996
2 43539  55.1884 163.2908 0104300 238.0173 119.1151  1.00259052 28854
BEIDOU-3 M5 (C23)       
1 43581U 18062A   26141.25936020  .00000034  00000+0  00000+0 0  9994
2 43581  54.0833 183.2195 0005253 288.6563  71.3552  1.86228723 53132
BEIDOU-3 M6 (C24)       
1 43582U 18062B   26141.12270174  .00000034  00000+0  00000+0 0  9992
2 43582  54.0833 183.2136 0004711  14.8012 345.2818  1.86227822 53131
BEIDOU-3 M12 (C26)      
1 43602U 18067A   26137.30242253  .00000084  00000+0  00000+0 0  9997
2 43602  54.1786 182.0879 0007743  31.4775 328.6606  1.86227757 52543
BEIDOU-3 M11 (C25)      
1 43603U 18067B   26141.19608023  .00000036  00000+0  00000+0 0  9998
2 43603  54.1757 181.9195 0004399  15.6107 344.4705  1.86227230 52641
BEIDOU-3 M13 (C32)      
1 43622U 18072A   26141.15108225 -.00000044  00000+0  00000+0 0  9990
2 43622  56.6021  63.5521 0008180 323.8656  36.0765  1.86231115 52159
